{
  "type": "FeatureCollection",
  "features": [
    {
      "type": "Feature",
      "properties": {
        "norad_id": 34121,
        "name": "COSMOS 2251 DEB",
        "group": "cosmos-2251-debris",
        "lat": -27.188856635043162,
        "lon": -67.76399287579072,
        "alt_km": 958.9108334871007,
        "timestamp": "2025-12-08T21:31:05.060230+00:00",
        "meta_object_name": "COSMOS 2251 DEB",
        "meta_object_id": "1993-036KS",
        "meta_epoch": "2025-12-08T15:49:43.785984",
        "meta_mean_motion": 13.91908487,
        "meta_eccentricity": 0.02400453,
        "meta_inclination": 73.993,
        "meta_ra_of_asc_node": 104.1625,
        "meta_arg_of_pericenter": 310.4811,
        "meta_mean_anomaly": 153.1225,
        "meta_ephemeris_type": 0,
        "meta_classification_type": "U",
        "meta_norad_cat_id": 34121,
        "meta_element_set_no": 999,
        "meta_rev_at_epoch": 85068,
        "meta_bstar": 0.0018725965,
        "meta_mean_motion_dot": 2.995e-05,
        "meta_mean_motion_ddot": 0,
        "tle_line1": "1 34121U 93036KS  25342.65953456  .00002995  00000+0  18726-2 0  9991",
        "tle_line2": "2 34121  73.9930 104.1625 0240045 310.4811 153.1225 13.91908487850682"
      },
      "geometry": {
        "type": "Point",
        "coordinates": [
          -67.76399287579072,
          -27.188856635043162
        ]
      }
    },
    {
      "type": "Feature",
      "properties": {
        "norad_id": 34122,
        "name": "COSMOS 2251 DEB",
        "group": "cosmos-2251-debris",
        "lat": 8.111246737021458,
        "lon": -56.31052018282991,
        "alt_km": 728.5807606052003,
        "timestamp": "2025-12-08T21:31:05.060240+00:00",
        "meta_object_name": "COSMOS 2251 DEB",
        "meta_object_id": "1993-036KT",
        "meta_epoch": "2025-12-08T15:53:27.638016",
        "meta_mean_motion": 14.6496702,
        "meta_eccentricity": 0.00841042,
        "meta_inclination": 74.0364,
        "meta_ra_of_asc_node": 126.4784,
        "meta_arg_of_pericenter": 24.4978,
        "meta_mean_anomaly": 350.4182,
        "meta_ephemeris_type": 0,
        "meta_classification_type": "U",
        "meta_norad_cat_id": 34122,
        "meta_element_set_no": 999,
        "meta_rev_at_epoch": 88625,
        "meta_bstar": 0.0016180854,
        "meta_mean_motion_dot": 9.107e-05,
        "meta_mean_motion_ddot": 0,
        "tle_line1": "1 34122U 93036KT  25342.66212544  .00009107  00000+0  16181-2 0  9994",
        "tle_line2": "2 34122  74.0364 126.4784 0084104  24.4978 350.4182 14.64967020886252"
      },
      "geometry": {
        "type": "Point",
        "coordinates": [
          -56.31052018282991,
          8.111246737021458
        ]
      }
    },
    {
      "type": "Feature",
      "properties": {
        "norad_id": 34127,
        "name": "COSMOS 2251 DEB",
        "group": "cosmos-2251-debris",
        "lat": -3.6086194728021757,
        "lon": -128.1656732964909,
        "alt_km": 758.3254720616296,
        "timestamp": "2025-12-08T21:31:05.060250+00:00",
        "meta_object_name": "COSMOS 2251 DEB",
        "meta_object_id": "1993-036KY",
        "meta_epoch": "2025-12-08T14:31:48.660384",
        "meta_mean_motion": 14.3147963,
        "meta_eccentricity": 0.01147462,
        "meta_inclination": 74.1795,
        "meta_ra_of_asc_node": 51.3356,
        "meta_arg_of_pericenter": 252.3093,
        "meta_mean_anomaly": 232.6934,
        "meta_ephemeris_type": 0,
        "meta_classification_type": "U",
        "meta_norad_cat_id": 34127,
        "meta_element_set_no": 999,
        "meta_rev_at_epoch": 86712,
        "meta_bstar": 0.0029534549,
        "meta_mean_motion_dot": 8.416e-05,
        "meta_mean_motion_ddot": 0,
        "tle_line1": "1 34127U 93036KY  25342.60542431  .00008416  00000+0  29535-2 0  9993",
        "tle_line2": "2 34127  74.1795  51.3356 0114746 252.3093 232.6934 14.31479630867123"
      },
      "geometry": {
        "type": "Point",
        "coordinates": [
          -128.1656732964909,
          -3.6086194728021757
        ]
      }
    },
    {
      "type": "Feature",
      "properties": {
        "norad_id": 34128,
        "name": "COSMOS 2251 DEB",
        "group": "cosmos-2251-debris",
        "lat": 28.206939380597753,
        "lon": 115.71147498746305,
        "alt_km": 563.6441040332538,
        "timestamp": "2025-12-08T21:31:05.060260+00:00",
        "meta_object_name": "COSMOS 2251 DEB",
        "meta_object_id": "1993-036KZ",
        "meta_epoch": "2025-12-08T08:43:42.242304",
        "meta_mean_motion": 15.00835895,
        "meta_eccentricity": 0.00262328,
        "meta_inclination": 74.0007,
        "meta_ra_of_asc_node": 305.6505,
        "meta_arg_of_pericenter": 58.4265,
        "meta_mean_anomaly": 93.6345,
        "meta_ephemeris_type": 0,
        "meta_classification_type": "U",
        "meta_norad_cat_id": 34128,
        "meta_element_set_no": 999,
        "meta_rev_at_epoch": 89101,
        "meta_bstar": 0.0024214608,
        "meta_mean_motion_dot": 0.00031108,
        "meta_mean_motion_ddot": 0,
        "tle_line1": "1 34128U 93036KZ  25342.36368336  .00031108  00000+0  24215-2 0  9991",
        "tle_line2": "2 34128  74.0007 305.6505 0026232  58.4265  93.6345 15.00835895891010"
      },
      "geometry": {
        "type": "Point",
        "coordinates": [
          115.71147498746305,
          28.206939380597753
        ]
      }
    },
    {
      "type": "Feature",
      "properties": {
        "norad_id": 34129,
        "name": "COSMOS 2251 DEB",
        "group": "cosmos-2251-debris",
        "lat": 54.04594528477734,
        "lon": 10.293081533148676,
        "alt_km": 615.2363864416393,
        "timestamp": "2025-12-08T21:31:05.060270+00:00",
        "meta_object_name": "COSMOS 2251 DEB",
        "meta_object_id": "1993-036LA",
        "meta_epoch": "2025-12-08T01:44:05.977824",
        "meta_mean_motion": 14.75610462,
        "meta_eccentricity": 0.00327731,
        "meta_inclination": 74.0351,
        "meta_ra_of_asc_node": 348.6584,
        "meta_arg_of_pericenter": 71.6884,
        "meta_mean_anomaly": 288.785,
        "meta_ephemeris_type": 0,
        "meta_classification_type": "U",
        "meta_norad_cat_id": 34129,
        "meta_element_set_no": 999,
        "meta_rev_at_epoch": 61229,
        "meta_bstar": 0.0015543105,
        "meta_mean_motion_dot": 0.00010683,
        "meta_mean_motion_ddot": 0,
        "tle_line1": "1 34129U 93036LA  25342.07229141  .00010683  00000+0  15543-2 0  9999",
        "tle_line2": "2 34129  74.0351 348.6584 0032773  71.6884 288.7850 14.75610462612299"
      },
      "geometry": {
        "type": "Point",
        "coordinates": [
          10.293081533148676,
          54.04594528477734
        ]
      }
    },
    {
      "type": "Feature",
      "properties": {
        "norad_id": 34136,
        "name": "COSMOS 2251 DEB",
        "group": "cosmos-2251-debris",
        "lat": 27.629277501811213,
        "lon": -138.413888995719,
        "alt_km": 572.1448311172808,
        "timestamp": "2025-12-08T21:31:05.060280+00:00",
        "meta_object_name": "COSMOS 2251 DEB",
        "meta_object_id": "1993-036LH",
        "meta_epoch": "2025-12-08T14:52:53.709312",
        "meta_mean_motion": 14.80033719,
        "meta_eccentricity": 0.00861263,
        "meta_inclination": 74.021,
        "meta_ra_of_asc_node": 50.7573,
        "meta_arg_of_pericenter": 174.8182,
        "meta_mean_anomaly": 303.9071,
        "meta_ephemeris_type": 0,
        "meta_classification_type": "U",
        "meta_norad_cat_id": 34136,
        "meta_element_set_no": 999,
        "meta_rev_at_epoch": 89949,
        "meta_bstar": 0.0007848758,
        "meta_mean_motion_dot": 6.3e-05,
        "meta_mean_motion_ddot": 0,
        "tle_line1": "1 34136U 93036LH  25342.62006608  .00006300  00000+0  78488-3 0  9998",
        "tle_line2": "2 34136  74.0210  50.7573 0086126 174.8182 303.9071 14.80033719899492"
      },
      "geometry": {
        "type": "Point",
        "coordinates": [
          -138.413888995719,
          27.629277501811213
        ]
      }
    },
    {
      "type": "Feature",
      "properties": {
        "norad_id": 34139,
        "name": "COSMOS 2251 DEB",
        "group": "cosmos-2251-debris",
        "lat": 15.912765345837016,
        "lon": 76.70497732463139,
        "alt_km": 726.4448437869742,
        "timestamp": "2025-12-08T21:31:05.060291+00:00",
        "meta_object_name": "COSMOS 2251 DEB",
        "meta_object_id": "1993-036LL",
        "meta_epoch": "2025-12-08T13:21:21.403008",
        "meta_mean_motion": 14.58971093,
        "meta_eccentricity": 0.00425379,
        "meta_inclination": 74.0313,
        "meta_ra_of_asc_node": 262.0354,
        "meta_arg_of_pericenter": 333.8357,
        "meta_mean_anomaly": 204.0556,
        "meta_ephemeris_type": 0,
        "meta_classification_type": "U",
        "meta_norad_cat_id": 34139,
        "meta_element_set_no": 999,
        "meta_rev_at_epoch": 88088,
        "meta_bstar": 0.0021374059,
        "meta_mean_motion_dot": 0.00010141,
        "meta_mean_motion_ddot": 0,
        "tle_line1": "1 34139U 93036LL  25342.55649772  .00010141  00000+0  21374-2 0  9997",
        "tle_line2": "2 34139  74.0313 262.0354 0042537 333.8357 204.0556 14.58971093880886"
      },
      "geometry": {
        "type": "Point",
        "coordinates": [
          76.70497732463139,
          15.912765345837016
        ]
      }
    }
  ]
}